QIANFAN-97              
1 66039U 25233G   25344.78443891  .00000288  00000+0  23830-3 0  9997
2 66039  88.9961  62.3693 0017655  53.9198 306.3605 13.86103897  7708
QIANFAN-98              
1 66040U 25233H   25344.56598961  .00000131  00000+0  80750-4 0  9996
2 66040  88.9961  62.3370 0016518  51.4807 308.7850 13.99174995  7708
QIANFAN-99              
1 66041U 25233J   25344.78375069  .00000435  00000+0  37743-3 0  9993
2 66041  88.9959  62.3690 0017218  49.5597 310.7072 13.84332279  7707
QIANFAN-100             
1 66042U 25233K   25344.51415586  .00000549  00000+0  39174-3 0  9990
2 66042  88.9964  62.3476 0017120  54.3108 305.9659 13.95895325  7693
QIANFAN-101             
1 66043U 25233L   25344.77252791  .00000441  00000+0  17641-3 0  9992
2 66043  88.9962  62.2567 0016231  48.3068 311.9512 14.26674463  7768
QIANFAN-102             
1 66044U 25233M   25344.51978407  .00000287  00000+0  23012-3 0  9991
2 66044  88.9960  62.3853 0016474  53.5256 306.7431 13.87959314  7671
QIANFAN-103             
1 66045U 25233N   25344.50954766  .00000329  00000+0  27943-3 0  9997
2 66045  88.9965  62.4035 0017051  50.9101 309.3583 13.85017718  7669
QIANFAN-104             
1 66046U 25233P   25344.52532291  .00000341  00000+0  27756-3 0  9991
2 66046  88.9961  62.3870 0015967  56.9436 303.3267 13.87575010  7673
